OBJECT_NAME,OBJECT_ID,EPOCH,MEAN_MOTION,ECCENTRICITY,INCLINATION,RA_OF_ASC_NODE,ARG_OF_PERICENTER,MEAN_ANOMALY,EPHEMERIS_TYPE,CLASSIFICATION_TYPE,NORAD_CAT_ID,ELEMENT_SET_NO,REV_AT_EPOCH,BSTAR,MEAN_MOTION_DOT,MEAN_MOTION_DDOT
ALOS-2,2014-029A,2026-06-25T14:14:18.991968,14.79468636,.00016226,97.9220,273.6368,90.4924,269.6474,0,U,39766,999,65282,.7075275E-4,.477E-5,0
KAZEOSAT 2,2014-033A,2026-06-25T13:59:04.708896,14.85479826,.00072004,97.5410,15.7509,297.9970,62.0517,0,U,40010,999,65020,.12306204E-3,.1012E-4,0
HODOYOSHI-4,2014-033B,2026-06-25T13:45:51.890400,14.88141733,.00221368,97.5458,0.9914,279.0163,80.8549,0,U,40011,999,65005,.55037706E-4,.456E-5,0
DEIMOS-2,2014-033D,2026-06-25T14:58:00.926112,14.93747707,.00013276,97.5831,50.8159,56.5160,303.6187,0,U,40013,999,63898,.10065294E-3,.1012E-4,0
HODOYOSHI-3,2014-033F,2026-06-25T09:40:49.210176,14.85403926,.00319938,97.6424,339.1133,329.8165,30.1207,0,U,40015,999,64884,.1221027E-3,.1008E-4,0
SPOT 7,2014-034A,2026-06-25T14:32:13.409664,14.60965090,.00013611,98.0629,238.8809,94.6957,265.4399,0,U,40053,999,63836,.11140087E-3,.501E-5,0
SKYSAT-B,2014-037D,2026-06-25T11:07:10.109280,14.88046738,.00042232,98.3841,135.9001,245.5744,114.5030,0,U,40072,999,64719,.13814897E-3,.1208E-4,0
WORLDVIEW-3 (WV-3),2014-048A,2026-06-25T12:32:23.390016,14.85034446,.00003091,97.8564,251.2403,18.8593,341.2633,0,U,40115,999,64314,.10246731E-3,.821E-5,0
GAOFEN-2,2014-049A,2026-06-25T14:56:05.596800,14.80908645,.00066828,98.0109,240.8218,195.2985,164.8026,0,U,40118,999,64048,.14598649E-3,.1075E-4,0
YAOGAN-21,2014-053A,2026-06-25T14:51:37.457856,15.26492745,.00098165,97.1477,216.4927,68.8943,291.3345,0,U,40143,999,65624,.44866726E-3,.11662E-3,0
YAOGAN-22,2014-063A,2026-06-25T09:34:51.087360,13.15531140,.00065274,100.7733,327.8091,167.1243,193.0035,0,U,40275,999,56089,.9442852E-5,-.43E-6,0
ASNARO,2014-070A,2026-06-25T15:42:23.183136,15.19556184,.00063638,97.3454,252.5401,138.8757,221.2959,0,U,40298,999,64529,.64428924E-3,.13655E-3,0
YAOGAN-24,2014-072A,2026-06-25T14:56:29.182272,14.76095094,.00132208,98.1495,314.0325,234.9595,125.0375,0,U,40310,999,62496,.14846528E-3,.972E-5,0
CBERS 4,2014-079A,2026-06-25T14:39:11.090592,14.35512119,.00016158,98.3532,233.1781,55.2488,304.8850,0,U,40336,999,60516,.1553879E-3,.405E-5,0
YAOGAN-26,2014-088A,2026-06-25T14:30:22.923072,15.47657251,.00051019,97.0640,176.6171,47.0438,313.1240,0,U,40362,999,63900,.2698478E-3,.1386E-3,0
SMAP,2015-003A,2026-06-25T13:24:18.010656,14.63373295,.00014148,98.1276,183.5344,98.3455,261.7908,0,U,40376,999,60884,.88812699E-4,.412E-5,0
KOMPSAT-3A,2015-014A,2026-06-25T14:41:14.519904,15.54379481,.00571432,97.6884,168.5916,144.3685,216.1404,0,U,40536,999,62312,.43695762E-3,.30737E-3,0
SENTINEL-2A,2015-028A,2026-06-25T14:33:04.813344,14.30818664,.00011555,98.5684,251.3388,91.8765,268.2551,0,U,40697,999,57493,.17912499E-3,.426E-5,0
GAOFEN-8,2015-030A,2026-06-25T15:08:39.596640,15.46248069,.00093618,97.6903,10.5097,157.4093,202.7569,0,U,40701,999,61275,.63086686E-3,.31071E-3,0
CARBONITE 1 (CBNT-1),2015-032D,2026-06-25T14:42:56.825280,14.83609155,.00128926,97.6514,354.3270,267.4433,92.5306,0,U,40718,999,59059,.16565497E-3,.1317E-4,0
YAOGAN-27,2015-040A,2026-06-25T14:51:14.115168,13.16071926,.0007899,100.1155,162.6355,189.9802,170.1156,0,U,40878,999,51877,.10048269E-2,.339E-5,0
GAOFEN-9 01,2015-047A,2026-06-25T15:10:23.757888,14.82898965,.00288056,97.6272,211.9432,111.3609,249.0684,0,U,40894,999,58144,.12691063E-3,.985E-5,0
YAOGAN-28,2015-064A,2026-06-25T15:25:16.131648,15.27520706,.00113592,97.3078,314.7325,154.5473,205.6328,0,U,41026,999,59197,.29077316E-3,.777E-4,0
YAOGAN-29,2015-069A,2026-06-25T14:40:16.808160,14.83089731,.00022082,98.0029,205.2575,40.1015,320.0361,0,U,41038,999,57187,.1074891E-5,-.45E-6,0
KENT RIDGE 1,2015-077B,2026-06-25T09:56:55.025664,15.23176152,.00081951,14.9783,204.8006,354.5762,5.4470,0,U,41167,999,58235,.13448257E-3,.4041E-4,0
GAOFEN-4,2015-083A,2026-06-25T13:06:08.091936,1.00271234,.00039917,0.3796,83.9130,114.2381,17.7726,0,U,41194,999,3861,0,-.325E-5,0
JASON-3,2016-002A,2026-06-25T13:06:49.056768,12.87556178,.00084202,66.0414,108.2614,272.3941,87.6113,0,U,41240,999,48832,.3321981E-5,-.61E-6,0
SENTINEL-3A,2016-011A,2026-06-25T13:29:18.659328,14.26734832,.00014339,98.6246,243.8254,97.3499,262.7845,0,U,41335,999,53925,.58155255E-4,.97E-6,0
ZIYUAN 3-02 (ZY 3-02),2016-033A,2026-06-25T14:37:18.030144,15.21253391,.00124384,97.3838,252.2216,258.2957,101.6883,0,U,41556,999,55926,.27973105E-3,.6193E-4,0
CARTOSAT-2C,2016-040A,2026-06-25T14:57:08.418240,15.19256930,.00104942,97.4488,236.4852,105.4924,254.7471,0,U,41599,999,55499,.35038357E-3,.733E-4,0
