ALOS-2                  
1 39766U 14029A   26176.59327537  .00000477  00000+0  70753-4 0  9993
2 39766  97.9220 273.6368 0001622  90.4924 269.6474 14.79468636652821
KAZEOSAT 2              
1 40010U 14033A   26176.58269339  .00001012  00000+0  12306-3 0  9991
2 40010  97.5410  15.7509 0007200 297.9970  62.0517 14.85479826650200
HODOYOSHI-4             
1 40011U 14033B   26176.57351725  .00000456  00000+0  55038-4 0  9993
2 40011  97.5458   0.9914 0022136 279.0163  80.8549 14.88141733650051
DEIMOS-2                
1 40013U 14033D   26176.62362183  .00001012  00000+0  10065-3 0  9990
2 40013  97.5831  50.8159 0001327  56.5160 303.6187 14.93747707638988
HODOYOSHI-3             
1 40015U 14033F   26176.40334734  .00001008  00000+0  12210-3 0  9998
2 40015  97.6424 339.1133 0031993 329.8165  30.1207 14.85403926648841
SPOT 7                  
1 40053U 14034A   26176.60571076  .00000501  00000+0  11140-3 0  9993
2 40053  98.0629 238.8809 0001361  94.6957 265.4399 14.60965090638361
SKYSAT-B                
1 40072U 14037D   26176.46331145  .00001208  00000+0  13815-3 0  9998
2 40072  98.3841 135.9001 0004223 245.5744 114.5030 14.88046738647199
WORLDVIEW-3 (WV-3)      
1 40115U 14048A   26176.52249294  .00000821  00000+0  10247-3 0  9994
2 40115  97.8564 251.2403 0000309  18.8593 341.2633 14.85034446643144
GAOFEN-2                
1 40118U 14049A   26176.62228700  .00001075  00000+0  14599-3 0  9994
2 40118  98.0109 240.8218 0006682 195.2985 164.8026 14.80908645640483
YAOGAN-21               
1 40143U 14053A   26176.61918354  .00011662  00000+0  44867-3 0  9991
2 40143  97.1477 216.4927 0009816  68.8943 291.3345 15.26492745656247
YAOGAN-22               
1 40275U 14063A   26176.39920240 -.00000043  00000+0  94429-5 0  9993
2 40275 100.7733 327.8091 0006527 167.1243 193.0035 13.15531140560898
ASNARO                  
1 40298U 14070A   26176.65443499  .00013655  00000+0  64429-3 0  9998
2 40298  97.3454 252.5401 0006363 138.8757 221.2959 15.19556184645294
YAOGAN-24               
1 40310U 14072A   26176.62255998  .00000972  00000+0  14847-3 0  9994
2 40310  98.1495 314.0325 0013220 234.9595 125.0375 14.76095094624964
CBERS 4                 
1 40336U 14079A   26176.61054503  .00000405  00000+0  15539-3 0  9997
2 40336  98.3532 233.1781 0001615  55.2488 304.8850 14.35512119605166
YAOGAN-26               
1 40362U 14088A   26176.60443198  .00013860  00000+0  26985-3 0  9993
2 40362  97.0640 176.6171 0005101  47.0438 313.1240 15.47657251639000
SMAP                    
1 40376U 15003A   26176.55854179  .00000412  00000+0  88813-4 0  9993
2 40376  98.1276 183.5344 0001414  98.3455 261.7908 14.63373295608849
KOMPSAT-3A              
1 40536U 15014A   26176.61197361  .00030737  00000+0  43696-3 0  9995
2 40536  97.6884 168.5916 0057143 144.3685 216.1404 15.54379481623128
SENTINEL-2A             
1 40697U 15028A   26176.60630571  .00000426  00000+0  17912-3 0  9996
2 40697  98.5684 251.3388 0001155  91.8765 268.2551 14.30818664574934
GAOFEN-8                
1 40701U 15030A   26176.63101385  .00031071  00000+0  63087-3 0  9998
2 40701  97.6903  10.5097 0009361 157.4093 202.7569 15.46248069612755
CARBONITE 1 (CBNT-1)    
1 40718U 15032D   26176.61315770  .00001317  00000+0  16565-3 0  9990
2 40718  97.6514 354.3270 0012892 267.4433  92.5306 14.83609155590594
YAOGAN-27               
1 40878U 15040A   26176.61891337  .00000339  00000+0  10048-2 0  9996
2 40878 100.1155 162.6355 0007899 189.9802 170.1156 13.16071926518775
GAOFEN-9 01             
1 40894U 15047A   26176.63221942  .00000985  00000+0  12691-3 0  9996
2 40894  97.6272 211.9432 0028805 111.3609 249.0684 14.82898965581441
YAOGAN-28               
1 41026U 15064A   26176.64254782  .00007770  00000+0  29077-3 0  9997
2 41026  97.3078 314.7325 0011359 154.5473 205.6328 15.27520706591974
YAOGAN-29               
1 41038U 15069A   26176.61130565 -.00000045  00000+0  10749-5 0  9991
2 41038  98.0029 205.2575 0002208  40.1015 320.0361 14.83089731571872
KENT RIDGE 1            
1 41167U 15077B   26176.41452576  .00004041  00000+0  13448-3 0  9996
2 41167  14.9783 204.8006 0008195 354.5762   5.4470 15.23176152582354
GAOFEN-4                
1 41194U 15083A   26176.54592699 -.00000325  00000+0  00000+0 0  9996
2 41194   0.3796  83.9130 0003991 114.2381  17.7726  1.00271234 38610
JASON-3                 
1 41240U 16002A   26176.54640112 -.00000061  00000+0  33220-5 0  9997
2 41240  66.0414 108.2614 0008420 272.3941  87.6113 12.87556178488329
SENTINEL-3A             
1 41335U 16011A   26176.56202152  .00000097  00000+0  58155-4 0  9993
2 41335  98.6246 243.8254 0001433  97.3499 262.7845 14.26734832539251
ZIYUAN 3-02 (ZY 3-02)   
1 41556U 16033A   26176.60923646  .00006193  00000+0  27973-3 0  9991
2 41556  97.3838 252.2216 0012438 258.2957 101.6883 15.21253391559263
CARTOSAT-2C             
1 41599U 16040A   26176.62301410  .00007330  00000+0  35038-3 0  9992
2 41599  97.4488 236.4852 0010494 105.4924 254.7471 15.19256930554996
